ICEYE-X72               
1 68504U 26067CS  26204.83335647  .00079132  00000+0  66371-2 0  9993
2 68504  97.7633 162.7476 0001096 149.5788  71.5076 14.97989946  5839
ICEYE-X78               
1 68995U 26100R   26204.69828652  .00000582  00000+0  63161-4 0  9991
2 68995  97.7323 101.4699 0003094  37.3774 322.7659 14.91823077 12141
ICEYE-X82               
1 68996U 26100S   26204.45404428  .00002193  00000+0  22487-3 0  9992
2 68996  97.7319 101.1691 0005365  43.1918 316.9720 14.91451748 12106
