{"fetched_at":"2026-07-24T07:06:35.314Z","source":"https://celestrak.org/NORAD/elements/gp.php?NAME=ICEYE&FORMAT=JSON","constellation":"iceye","records":[{"OBJECT_NAME":"ICEYE-X72","OBJECT_ID":"2026-067CS","EPOCH":"2026-07-23T20:00:01.999008","CLASSIFICATION_TYPE":"U","MEAN_MOTION":14.97989946,"ECCENTRICITY":0.0001096,"INCLINATION":97.7633,"RA_OF_ASC_NODE":162.7476,"ARG_OF_PERICENTER":149.5788,"MEAN_ANOMALY":71.5076,"EPHEMERIS_TYPE":0,"NORAD_CAT_ID":68504,"ELEMENT_SET_NO":999,"REV_AT_EPOCH":583,"BSTAR":0.0066371,"MEAN_MOTION_DOT":0.00079132,"MEAN_MOTION_DDOT":0},{"OBJECT_NAME":"ICEYE-X78","OBJECT_ID":"2026-100R","EPOCH":"2026-07-23T16:45:31.955328","CLASSIFICATION_TYPE":"U","MEAN_MOTION":14.91823077,"ECCENTRICITY":0.0003094,"INCLINATION":97.7323,"RA_OF_ASC_NODE":101.4699,"ARG_OF_PERICENTER":37.3774,"MEAN_ANOMALY":322.7659,"EPHEMERIS_TYPE":0,"NORAD_CAT_ID":68995,"ELEMENT_SET_NO":999,"REV_AT_EPOCH":1214,"BSTAR":0.000063161,"MEAN_MOTION_DOT":0.00000582,"MEAN_MOTION_DDOT":0},{"OBJECT_NAME":"ICEYE-X82","OBJECT_ID":"2026-100S","EPOCH":"2026-07-23T10:53:49.425792","CLASSIFICATION_TYPE":"U","MEAN_MOTION":14.91451748,"ECCENTRICITY":0.0005365,"INCLINATION":97.7319,"RA_OF_ASC_NODE":101.1691,"ARG_OF_PERICENTER":43.1918,"MEAN_ANOMALY":316.972,"EPHEMERIS_TYPE":0,"NORAD_CAT_ID":68996,"ELEMENT_SET_NO":999,"REV_AT_EPOCH":1210,"BSTAR":0.00022487,"MEAN_MOTION_DOT":0.00002193,"MEAN_MOTION_DDOT":0}]}
